{
"type": "FeatureCollection",
"name": "POLIGONOS",
"crs": { "type": "name", "properties": { "name": "urn:ogc:def:crs:OGC:1.3:CRS84" } },
"features": [
{ "type": "Feature", "properties": { "id": null, "NOMBRE": "POLIGONO2" }, "geometry": { "type": "MultiPolygon", "coordinates": [ [ [ [ -75.180944487392409, 4.448582152281362 ], [ -75.182717005359052, 4.450624401242935 ], [ -75.18256287336196, 4.453629975186383 ], [ -75.183461976678373, 4.45655848313128 ], [ -75.183911528336566, 4.459140194082704 ], [ -75.181072930723317, 4.461323730708286 ], [ -75.178658196102091, 4.458831930088505 ], [ -75.176192084148482, 4.459551212741637 ], [ -75.17576822115646, 4.456365818134906 ], [ -75.176346216145589, 4.454670366166806 ], [ -75.175164537501146, 4.450881287904767 ], [ -75.17421726793566, 4.449436300431955 ], [ -75.174949394921882, 4.448203244455156 ], [ -75.175167748584443, 4.447830758795499 ], [ -75.175790698739377, 4.44784360312859 ], [ -75.176606313890701, 4.447586716466757 ], [ -75.178006346197691, 4.447387629303837 ], [ -75.179477022336684, 4.44749038396857 ], [ -75.180344014820378, 4.447509650468207 ], [ -75.181936712123743, 4.447124320475457 ], [ -75.182431218947769, 4.44745827313584 ], [ -75.182752327275068, 4.448826194610102 ], [ -75.181724780627732, 4.449211524602852 ], [ -75.180944487392409, 4.448582152281362 ] ] ] ] } },
{ "type": "Feature", "properties": { "id": null, "NOMBRE": "POLIGONO1" }, "geometry": { "type": "MultiPolygon", "coordinates": [ [ [ [ -74.128096920042239, 4.665731509163392 ], [ -74.102429743850323, 4.675012296035048 ], [ -74.074442370940488, 4.663991361624958 ], [ -74.072412198812316, 4.640789394445821 ], [ -74.082853084042924, 4.628608361676774 ], [ -74.132157264298598, 4.632958730522862 ], [ -74.128096920042239, 4.665731509163392 ] ] ] ] } }
]
}
