{
"type": "FeatureCollection",
"name": "POLIGONO-VVC FACTIBILIDADES",
"crs": { "type": "name", "properties": { "name": "urn:ogc:def:crs:OGC:1.3:CRS84" } },
"features": [
{ "type": "Feature", "properties": { "fid": null, "id": null, "NOMBRE": "POLIGONO4", "MUNICIPIO": "TRONCAL" }, "geometry": { "type": "MultiPolygon", "coordinates": [ [ [ [ -74.822727646101924, 10.987013050911878 ], [ -74.780335953424782, 11.008490436006371 ], [ -74.768993963543423, 10.988702283447401 ], [ -74.771487592524423, 10.95274576233415 ], [ -74.822325447879166, 10.949608616196752 ], [ -74.822084128945534, 10.96183544216815 ], [ -74.822727646101924, 10.987013050911878 ] ], [ [ -74.794882960393537, 10.965903614347747 ], [ -74.794206764631539, 10.965503929863896 ], [ -74.793842272492185, 10.965290262058064 ], [ -74.793203782813578, 10.964847844013045 ], [ -74.792985087529956, 10.964639203684998 ], [ -74.792809125807509, 10.964538654129312 ], [ -74.792394358890306, 10.964194271901087 ], [ -74.792127902567728, 10.964096236084293 ], [ -74.792020975102588, 10.964246110730871 ], [ -74.791360663381482, 10.96565135173474 ], [ -74.791020564553307, 10.966336081474211 ], [ -74.79073264473557, 10.967394599281221 ], [ -74.790652966272816, 10.967548856452661 ], [ -74.79094958746208, 10.967629296097209 ], [ -74.791085329362261, 10.967659460963915 ], [ -74.792043063880172, 10.967898266158668 ], [ -74.792166544498158, 10.96793902853225 ], [ -74.792408191272003, 10.968004035637691 ], [ -74.792370048976196, 10.968155426553739 ], [ -74.792497824504451, 10.968199218709559 ], [ -74.792569937533571, 10.968032366176409 ], [ -74.793084200429377, 10.968170655720559 ], [ -74.793043801163662, 10.968304762167881 ], [ -74.793157072261025, 10.968327464033051 ], [ -74.793169612922441, 10.96828515042591 ], [ -74.793683333866127, 10.96845695701243 ], [ -74.793668840465273, 10.968488075769971 ], [ -74.793847449893391, 10.968560486134329 ], [ -74.793967157198963, 10.968326930887979 ], [ -74.794259584168898, 10.968440875155681 ], [ -74.794347280584489, 10.96848138460774 ], [ -74.794609592801294, 10.968577932518141 ], [ -74.794754501243759, 10.968295916605371 ], [ -74.794834503141814, 10.968248837912499 ], [ -74.794941918697319, 10.968022938748041 ], [ -74.794871768359428, 10.96798960060446 ], [ -74.794959771832396, 10.96772591682481 ], [ -74.794944113698818, 10.967703613370469 ], [ -74.794976237347882, 10.96761701593503 ], [ -74.795112662956868, 10.967661705381889 ], [ -74.795227971056534, 10.96744956376642 ], [ -74.795508252943009, 10.967579021319366 ], [ -74.795632683018169, 10.967371637860765 ], [ -74.795405818083154, 10.967309422823181 ], [ -74.795506260117833, 10.96708670880794 ], [ -74.795105557830084, 10.966873763303591 ], [ -74.794925693954738, 10.967087585365949 ], [ -74.794744704754507, 10.967017200676969 ], [ -74.794546119382019, 10.966959384682449 ], [ -74.794559751432743, 10.96682773948549 ], [ -74.794461646077565, 10.966795535613301 ], [ -74.794580014424113, 10.9663878939512 ], [ -74.794596271910123, 10.966394183425569 ], [ -74.794689283272646, 10.96623934773031 ], [ -74.794649455337122, 10.966208515047271 ], [ -74.794882960393537, 10.965903614347747 ] ], [ [ -74.800579377593351, 10.96919553808751 ], [ -74.800712949319177, 10.968230079692432 ], [ -74.800205174062967, 10.968028980581062 ], [ -74.799046340433662, 10.969875321797341 ], [ -74.80028687057694, 10.969940679008534 ], [ -74.800310544567978, 10.969175344557851 ], [ -74.800579377593351, 10.96919553808751 ] ], [ [ -74.794270085308256, 10.98270814802385 ], [ -74.794542871138333, 10.982829663057998 ], [ -74.794637056471004, 10.98287161880736 ], [ -74.79474988619215, 10.98292180911811 ], [ -74.794910546450168, 10.98298161110802 ], [ -74.795015141763571, 10.98302506109952 ], [ -74.795139303126476, 10.983073704155521 ], [ -74.795431447121913, 10.98320798981567 ], [ -74.795490656770781, 10.983137808192284 ], [ -74.795550986504196, 10.983162945581206 ], [ -74.795661591015445, 10.983235844009078 ], [ -74.795531363178483, 10.983559177203 ], [ -74.79569390969445, 10.98382504146767 ], [ -74.795614875922482, 10.98401853549308 ], [ -74.795636536748574, 10.98402853746215 ], [ -74.795579446835958, 10.98417389074217 ], [ -74.795655197983606, 10.984210483553969 ], [ -74.795431611861247, 10.98473872123844 ], [ -74.795442303254688, 10.98474299866426 ], [ -74.795246243322637, 10.98516898975897 ], [ -74.795332928101629, 10.985218042103851 ], [ -74.795320943692118, 10.98527905638873 ], [ -74.795028318791637, 10.98535346862325 ], [ -74.794972847857238, 10.985662030726189 ], [ -74.795490110789345, 10.985795867233501 ], [ -74.796026152058857, 10.986013261899661 ], [ -74.796142112913941, 10.986124040886271 ], [ -74.796682488895769, 10.986305038459539 ], [ -74.796815384786953, 10.98632842189193 ], [ -74.797090911951997, 10.98646376984391 ], [ -74.79703166713854, 10.98669579639483 ], [ -74.797365991464602, 10.986782807080401 ], [ -74.797509189101177, 10.986865682969336 ], [ -74.797564221369555, 10.98673246218174 ], [ -74.797590473470336, 10.98666071174814 ], [ -74.79771815396596, 10.986709731246529 ], [ -74.798016964357373, 10.986827976885953 ], [ -74.798710756291584, 10.987157276680826 ], [ -74.798831415758414, 10.987574557336922 ], [ -74.799188199150194, 10.987579491745811 ], [ -74.799193263703799, 10.98768383921402 ], [ -74.799193607290732, 10.987687080051719 ], [ -74.799291143223499, 10.98773582565674 ], [ -74.799327080896333, 10.987915205168321 ], [ -74.799361915576114, 10.98826008155425 ], [ -74.799434227514297, 10.98826174571534 ], [ -74.799431586017903, 10.98836540092573 ], [ -74.799742744572256, 10.98835766875737 ], [ -74.799749785979557, 10.98830840016541 ], [ -74.799894035081437, 10.98830979340781 ], [ -74.799899917014329, 10.98833144593161 ], [ -74.800042989799437, 10.988324842534601 ], [ -74.800176120182613, 10.988340273353151 ], [ -74.800298698386044, 10.98834485637995 ], [ -74.800302296141155, 10.98827000756245 ], [ -74.800389691653294, 10.98827120445471 ], [ -74.800393479583505, 10.98823786327889 ], [ -74.800468594738419, 10.98824255666451 ], [ -74.800465847113401, 10.988260374503479 ], [ -74.800495184254927, 10.98826464582921 ], [ -74.800472887254955, 10.988630327671626 ], [ -74.800842406872107, 10.98860016280492 ], [ -74.800902736605522, 10.988230643187773 ], [ -74.801387500598736, 10.988466614224279 ], [ -74.801474179964828, 10.988452290308929 ], [ -74.801555933741227, 10.988273566639061 ], [ -74.801746008911977, 10.98836771069054 ], [ -74.801811243489169, 10.98823975273995 ], [ -74.802009803536436, 10.988344707578211 ], [ -74.801986287401064, 10.988408042161261 ], [ -74.802224834383011, 10.98853734801644 ], [ -74.802456227240882, 10.988582566632674 ], [ -74.802591237656841, 10.98850327946654 ], [ -74.802663042817926, 10.988330632011589 ], [ -74.802758831781389, 10.98837725760063 ], [ -74.802657129071775, 10.98861382950609 ], [ -74.802769671904997, 10.98868049201813 ], [ -74.802734021182744, 10.98876975640267 ], [ -74.802741712477882, 10.98877516125529 ], [ -74.802720640377032, 10.988817130358299 ], [ -74.802732209035568, 10.98882335402339 ], [ -74.802697187908308, 10.988901431998499 ], [ -74.802722961155041, 10.98892012379194 ], [ -74.802714125520595, 10.988944607024729 ], [ -74.803029420663975, 10.98910424144491 ], [ -74.803286532641835, 10.98921230733411 ], [ -74.803324290493094, 10.98910305686786 ], [ -74.803627341246056, 10.98924968734776 ], [ -74.803681442342537, 10.9893809583654 ], [ -74.80384613652916, 10.989474102129231 ], [ -74.803920767325721, 10.989303962706741 ], [ -74.804080120098007, 10.989394946276949 ], [ -74.804021426666466, 10.98951339389733 ], [ -74.804348057334138, 10.98969021318222 ], [ -74.804475349299452, 10.989618513824791 ], [ -74.804696966901645, 10.989740581521451 ], [ -74.804539486203367, 10.99005991134111 ], [ -74.804581334591475, 10.990373166997401 ], [ -74.804458008876622, 10.9905875940256 ], [ -74.804691116670654, 10.99068469164175 ], [ -74.804921775585939, 10.990800187675161 ], [ -74.804891389864935, 10.99086546884361 ], [ -74.805037803570215, 10.99091640568207 ], [ -74.80516654884849, 10.99070275271923 ], [ -74.805401000041215, 10.99054659113879 ], [ -74.806399968091426, 10.99106346546758 ], [ -74.807202166269249, 10.991516099919808 ], [ -74.807612646326717, 10.99073127974369 ], [ -74.808015863822533, 10.990084940065531 ], [ -74.808373568592984, 10.989505108806094 ], [ -74.808534994975403, 10.989244318234711 ], [ -74.808812216029665, 10.988931976338684 ], [ -74.808978122796546, 10.988679345580024 ], [ -74.809235781032996, 10.988122552415415 ], [ -74.809446935099928, 10.987624832114772 ], [ -74.809607814389025, 10.987267881192087 ], [ -74.809939627922773, 10.98663944646905 ], [ -74.809581403887918, 10.98645835534189 ], [ -74.809653024628346, 10.98625151914667 ], [ -74.809454476316603, 10.986083910173884 ], [ -74.80996817485611, 10.98520824904335 ], [ -74.810301528249397, 10.9848146786854 ], [ -74.810640215467586, 10.98455934014485 ], [ -74.810626441091387, 10.98452883737481 ], [ -74.810206968694999, 10.98441282685733 ], [ -74.810291551367669, 10.983964828287808 ], [ -74.810065314867373, 10.983907012293288 ], [ -74.809964733746597, 10.984335855628069 ], [ -74.809605427436992, 10.98425162941242 ], [ -74.809299872321063, 10.984174954822819 ], [ -74.809271938898576, 10.984248484452481 ], [ -74.809133869843848, 10.984204090152049 ], [ -74.808905514145394, 10.984148102015171 ], [ -74.808927910284211, 10.98409125065178 ], [ -74.808728789978105, 10.98406426365433 ], [ -74.808695937502407, 10.98412801695765 ], [ -74.808583157033311, 10.98410028255717 ], [ -74.80833561669985, 10.984046434112139 ], [ -74.80827036609297, 10.98395221666676 ], [ -74.807860712845283, 10.983972010753551 ], [ -74.80781141082069, 10.983860367714501 ], [ -74.807663947986427, 10.98382311608191 ], [ -74.807637106194377, 10.98392279051752 ], [ -74.806781139608219, 10.98368966465145 ], [ -74.806807494683227, 10.983611081866011 ], [ -74.806453431060945, 10.98349686133532 ], [ -74.806266193262402, 10.98355820448525 ], [ -74.805967862117939, 10.98347298046186 ], [ -74.805929515421113, 10.983558330566231 ], [ -74.805276367014514, 10.983360362250989 ], [ -74.805243550216176, 10.983413142920099 ], [ -74.804864293849818, 10.98323898746353 ], [ -74.804768499488944, 10.98338269880646 ], [ -74.804353873329688, 10.9832406888356 ], [ -74.804370014294292, 10.983206258451411 ], [ -74.804142697789089, 10.98325890229536 ], [ -74.804005423803588, 10.983091399631411 ], [ -74.803747945060209, 10.98301202092755 ], [ -74.803756562344091, 10.982933936937791 ], [ -74.803454943318329, 10.982908711199091 ], [ -74.803283739281255, 10.982987279477429 ], [ -74.803035899392114, 10.98299620675094 ], [ -74.803032528904367, 10.98293258990376 ], [ -74.802522208473135, 10.982911476293991 ], [ -74.802463768457514, 10.98314786314786 ], [ -74.801480896550672, 10.983283605048038 ], [ -74.801433135511729, 10.983042286114392 ], [ -74.801314989783791, 10.982569703202669 ], [ -74.801206899011419, 10.982592326852696 ], [ -74.801117228254938, 10.982559847384589 ], [ -74.800991350627015, 10.982563271714231 ], [ -74.800838825536701, 10.98268817943986 ], [ -74.80082801948862, 10.98266401858996 ], [ -74.8006568644917, 10.982512448391031 ], [ -74.800487452701532, 10.982411355738209 ], [ -74.800329045771292, 10.982376080773671 ], [ -74.800072443231201, 10.98224564751558 ], [ -74.799887215606361, 10.98253422969783 ], [ -74.79951263899811, 10.982351007919048 ], [ -74.799435969961905, 10.982601124938817 ], [ -74.799262075534912, 10.98256765803059 ], [ -74.799259698791971, 10.98253387720165 ], [ -74.799356529898233, 10.982370884930299 ], [ -74.79914561527508, 10.98226566898559 ], [ -74.799217030817516, 10.982138471735849 ], [ -74.798968252948228, 10.981993258573031 ], [ -74.798851031689708, 10.98187110658486 ], [ -74.798671229801229, 10.98178513291988 ], [ -74.79858355369737, 10.98191849177395 ], [ -74.798198986429782, 10.98173469864118 ], [ -74.79820444653528, 10.98172117787246 ], [ -74.797886898143005, 10.98156898381351 ], [ -74.797731531385807, 10.98152715297611 ], [ -74.797422778295228, 10.98134387002804 ], [ -74.797363932532036, 10.98141298070305 ], [ -74.79735877608077, 10.981435092437611 ], [ -74.797198742347874, 10.981644647290352 ], [ -74.796545170235916, 10.981355567317756 ], [ -74.796448018163701, 10.98152352620767 ], [ -74.796329259949175, 10.981716755683641 ], [ -74.796090548449186, 10.981603652558221 ], [ -74.796138675351784, 10.9815371375082 ], [ -74.795960307239511, 10.98145062453742 ], [ -74.795877942859107, 10.981409038937571 ], [ -74.795835526281365, 10.98147213367341 ], [ -74.795760972119581, 10.981448977837189 ], [ -74.795490326214534, 10.98133267732622 ], [ -74.795374651603623, 10.98151393544423 ], [ -74.795260792633371, 10.981460878669088 ], [ -74.794976424801121, 10.981328367018049 ], [ -74.794958227678194, 10.981351445346689 ], [ -74.794941223122763, 10.981339721719481 ], [ -74.794981496012014, 10.98126315189897 ], [ -74.794992061097872, 10.981262121982709 ], [ -74.795069568298132, 10.98113234836382 ], [ -74.795006558766445, 10.98109793925741 ], [ -74.795266282915165, 10.980631690878051 ], [ -74.795345357724514, 10.98066095775885 ], [ -74.795387663694541, 10.980596635067149 ], [ -74.795533608960483, 10.980658667866519 ], [ -74.79559726501482, 10.98054411218302 ], [ -74.795488893688173, 10.980477559611501 ], [ -74.795614659057762, 10.980242575576071 ], [ -74.795505206549961, 10.980188436471931 ], [ -74.795569885434986, 10.980041375574491 ], [ -74.795595678956445, 10.97993152290484 ], [ -74.795725632105629, 10.97976739875886 ], [ -74.795901022766643, 10.979843192156769 ], [ -74.796019831020629, 10.97968395410653 ], [ -74.795997554620641, 10.979669655810371 ], [ -74.796180094659746, 10.979422866902389 ], [ -74.796227519741109, 10.979395531120449 ], [ -74.796215870441046, 10.979218889259435 ], [ -74.795884056907283, 10.978997680236926 ], [ -74.795501968595687, 10.978932323025731 ], [ -74.794330566271938, 10.978640729314241 ], [ -74.794174714460624, 10.978570344625259 ], [ -74.794257667844064, 10.978580399580828 ], [ -74.794361682581865, 10.97825852820675 ], [ -74.7943419185696, 10.978254696374879 ], [ -74.794359098171796, 10.978173386605681 ], [ -74.7943785852014, 10.978177164733189 ], [ -74.794521926917312, 10.977650014104039 ], [ -74.794452396630206, 10.97761765340725 ], [ -74.794469951280831, 10.977549518057071 ], [ -74.794500684976896, 10.977166632729899 ], [ -74.79453348067625, 10.977083016477961 ], [ -74.794634719461399, 10.977104238985399 ], [ -74.794669975767803, 10.97705260884063 ], [ -74.794761744894785, 10.97678630201851 ], [ -74.794847086904213, 10.976678376201219 ], [ -74.794870369342831, 10.9766192587017 ], [ -74.794769727007591, 10.97658738676545 ], [ -74.794800898797561, 10.976499269425659 ], [ -74.794797828523528, 10.976454120480669 ], [ -74.794889418647855, 10.97610978479185 ], [ -74.795072119245106, 10.975787635671658 ], [ -74.794903698739333, 10.975697141071542 ], [ -74.79429537392744, 10.975488500743491 ], [ -74.794011321432635, 10.975458335876787 ], [ -74.793531197304233, 10.975551344215797 ], [ -74.792671498603127, 10.975845451666176 ], [ -74.79255586661408, 10.976044037038656 ], [ -74.792875159941246, 10.976162732106051 ], [ -74.792717821009077, 10.97657179198144 ], [ -74.792560582203109, 10.97665221812152 ], [ -74.792475175660229, 10.976868718895069 ], [ -74.792603930623656, 10.976916694971919 ], [ -74.792480416106542, 10.97720471742926 ], [ -74.792532347773928, 10.97724595935464 ], [ -74.792622823547532, 10.97727922041333 ], [ -74.792583593987402, 10.977357811727421 ], [ -74.792513139795489, 10.977460285863099 ], [ -74.7924504986307, 10.977614301205071 ], [ -74.7923642222556, 10.97758931310964 ], [ -74.792332278746585, 10.97766960273306 ], [ -74.792344360244783, 10.97767053023362 ], [ -74.792288053391843, 10.97780648760536 ], [ -74.792329286890308, 10.977828029665609 ], [ -74.792286857632575, 10.97792546022783 ], [ -74.792205707678235, 10.97789311522304 ], [ -74.792172608934266, 10.977962872741401 ], [ -74.792087616524611, 10.97793902976537 ], [ -74.792062810942397, 10.978021579271021 ], [ -74.792054025115874, 10.97813782122256 ], [ -74.792016099027549, 10.978308285717279 ], [ -74.792107317216093, 10.978335425791229 ], [ -74.791926259439165, 10.97885241883076 ], [ -74.791778016156485, 10.979158472701121 ], [ -74.79177113358098, 10.979238227209001 ], [ -74.791849617206594, 10.97926205398737 ], [ -74.791832910935739, 10.979338778947669 ], [ -74.791816657397789, 10.97933689514757 ], [ -74.791709834391455, 10.9798684009581 ], [ -74.791609642814279, 10.97990906534389 ], [ -74.791581511247614, 10.98001712534896 ], [ -74.791600851665763, 10.980016963453609 ], [ -74.791580195105794, 10.980121825884231 ], [ -74.791702650709809, 10.980150984602879 ], [ -74.791636981063832, 10.980432843548421 ], [ -74.791624119965618, 10.98044983939988 ], [ -74.791584357937296, 10.98064401478242 ], [ -74.791175361412044, 10.98054234216905 ], [ -74.791190422012193, 10.98045113052442 ], [ -74.790716701189652, 10.980336182246271 ], [ -74.790705403042537, 10.980369481480381 ], [ -74.790518481242145, 10.980329961849767 ], [ -74.790543618631062, 10.980254549683004 ], [ -74.791242438043056, 10.977675453579662 ], [ -74.790974916572225, 10.977598477580971 ], [ -74.790809452405526, 10.977534396186099 ], [ -74.790840005527286, 10.97746142893928 ], [ -74.790462304939282, 10.977357793201991 ], [ -74.790595092289692, 10.97689182775952 ], [ -74.790393773778547, 10.9768091035015 ], [ -74.790268401461248, 10.976805203862749 ], [ -74.790103813383865, 10.976757580838109 ], [ -74.790130881137046, 10.97667626661389 ], [ -74.789885739499184, 10.976599901149861 ], [ -74.789859806910997, 10.97667907887501 ], [ -74.789813441836316, 10.976668537457259 ], [ -74.789818850463021, 10.97664794651838 ], [ -74.789766865961099, 10.976624034198171 ], [ -74.789771678392754, 10.97656572449651 ], [ -74.789628061412571, 10.976527363140651 ], [ -74.78960586617076, 10.97656837579 ], [ -74.789395839359315, 10.976520053985 ], [ -74.78939990683746, 10.97649966438985 ], [ -74.789278905801098, 10.97646867430683 ], [ -74.78931214963049, 10.97634987230242 ], [ -74.789412754166435, 10.976318219798561 ], [ -74.789468805216202, 10.976263102879351 ], [ -74.789518554521649, 10.97609686182107 ], [ -74.789428775432228, 10.976066660688689 ], [ -74.789569544810192, 10.975611673949212 ], [ -74.789851083566106, 10.97566948994373 ], [ -74.790167139095701, 10.975552251691701 ], [ -74.79027155929694, 10.97539884207392 ], [ -74.790434794587696, 10.975502523679269 ], [ -74.790556766981595, 10.97537782170785 ], [ -74.79053764925122, 10.975355852791481 ], [ -74.790693210063381, 10.975206729999909 ], [ -74.790733830597205, 10.975239852824631 ], [ -74.790839131068282, 10.9751798999763 ], [ -74.790855409670968, 10.97519303612404 ], [ -74.790942623752002, 10.9751151568447 ], [ -74.790894944206002, 10.975074436230541 ], [ -74.791034207964046, 10.9749189571281 ], [ -74.791075183631179, 10.974929664898809 ], [ -74.791095645494295, 10.97489507824843 ], [ -74.791304024645768, 10.974741920292528 ], [ -74.79173136025743, 10.974495573881098 ], [ -74.791957596757726, 10.974455354058824 ], [ -74.792005034512655, 10.974120549148379 ], [ -74.792073680153706, 10.97395218498845 ], [ -74.79189172960578, 10.973935353861901 ], [ -74.791651307452156, 10.97384404103156 ], [ -74.791386576232853, 10.973777023769131 ], [ -74.791281531272972, 10.97369177836997 ], [ -74.790198634857788, 10.973294256496629 ], [ -74.790046560859082, 10.9732947363312 ], [ -74.789572112872548, 10.97311334077653 ], [ -74.78910650059909, 10.973008303602191 ], [ -74.788969945769807, 10.97296167907221 ], [ -74.788820374625402, 10.97347862606045 ], [ -74.78844276421529, 10.974726396685959 ], [ -74.78816994315082, 10.97567995711981 ], [ -74.787948216251763, 10.97648281948913 ], [ -74.787732604540565, 10.977288090971181 ], [ -74.787487731675142, 10.97806910638006 ], [ -74.787085955182633, 10.97943140738623 ], [ -74.787014326642662, 10.97941751805422 ], [ -74.786621529006922, 10.980905199032049 ], [ -74.786581747371599, 10.98115431507385 ], [ -74.785093262347004, 10.986355324460179 ], [ -74.785043557935055, 10.986579116735633 ], [ -74.784877651168173, 10.987287991103218 ], [ -74.785752432302644, 10.987544392470218 ], [ -74.786013861147424, 10.987654996981471 ], [ -74.787245593204574, 10.987966700604098 ], [ -74.789206309540447, 10.988580052893781 ], [ -74.789372216307328, 10.988642896366084 ], [ -74.792401271672361, 10.98952521871723 ], [ -74.792578983805313, 10.989217050780359 ], [ -74.792249620106418, 10.989107078463899 ], [ -74.792371576439422, 10.98873209748062 ], [ -74.792513792311155, 10.988768208215619 ], [ -74.792570209001141, 10.988541899504719 ], [ -74.792697555105121, 10.988444768717979 ], [ -74.792750566056597, 10.988154916987259 ], [ -74.792625401551433, 10.98812200516247 ], [ -74.792796447227644, 10.98747865374869 ], [ -74.793145338384448, 10.986297577979711 ], [ -74.791098901043426, 10.98577521815489 ], [ -74.791314594581593, 10.985814247617579 ], [ -74.791322191475047, 10.98581572056446 ], [ -74.791815517926864, 10.985231028705201 ], [ -74.791717345831472, 10.98516146100607 ], [ -74.791776397876149, 10.9850786223742 ], [ -74.791788307495466, 10.9850699375777 ], [ -74.791793331679287, 10.98507091168864 ], [ -74.791893247663836, 10.98473258065208 ], [ -74.792034061436055, 10.98478956606966 ], [ -74.792197658822104, 10.984585721794158 ], [ -74.792300722116693, 10.984641024049784 ], [ -74.792584774611498, 10.984718949955441 ], [ -74.792997027789809, 10.984067891582376 ], [ -74.793569890381846, 10.98433568773774 ], [ -74.793708933949446, 10.984054602750451 ], [ -74.794111660331737, 10.984281713174139 ], [ -74.794237162622423, 10.98401445821156 ], [ -74.794016547523512, 10.983892945315089 ], [ -74.794146979743715, 10.98368246551798 ], [ -74.794333528175969, 10.983794308556201 ], [ -74.794400814769872, 10.98367072692513 ], [ -74.7938517645903, 10.983326641813679 ], [ -74.793893064186662, 10.98320645288209 ], [ -74.793625462512821, 10.983044799853277 ], [ -74.793813992929728, 10.982728068752866 ], [ -74.794184626104254, 10.982896878856559 ], [ -74.794270085308256, 10.98270814802385 ] ], [ [ -74.799971826186166, 10.99184997119602 ], [ -74.800063038693054, 10.99155523397625 ], [ -74.793915799354863, 10.989913905593419 ], [ -74.792394987325096, 10.989544385976279 ], [ -74.79149821097532, 10.989286099305112 ], [ -74.789443229430958, 10.988682801970997 ], [ -74.788491779260298, 10.988362300262251 ], [ -74.78599752184455, 10.987661595546063 ], [ -74.784694148228965, 10.987305587275465 ], [ -74.783225125214884, 10.991390642009231 ], [ -74.78295821335864, 10.994821240474501 ], [ -74.783015599083839, 10.9949413833777 ], [ -74.785363431209106, 10.993996217554255 ], [ -74.789129012069552, 10.992865035052791 ], [ -74.791310937427937, 10.993025914341889 ], [ -74.791637723483916, 10.993111381464223 ], [ -74.791706806719588, 10.99324896737842 ], [ -74.791674124804459, 10.993245648102491 ], [ -74.791652785070426, 10.993390881895079 ], [ -74.79153111619695, 10.99337852491381 ], [ -74.79150521167854, 10.99364247730631 ], [ -74.791895256164821, 10.99367535405519 ], [ -74.791899786898981, 10.993862439268669 ], [ -74.791983520727996, 10.993870943302751 ], [ -74.792122875090087, 10.993682000192736 ], [ -74.79223347960135, 10.993752384881716 ], [ -74.792371301283879, 10.993921410512529 ], [ -74.792472284796091, 10.993983648859793 ], [ -74.792313919245885, 10.994109335804401 ], [ -74.792077627790022, 10.994393388299214 ], [ -74.791818712684133, 10.99474028426633 ], [ -74.792107792656736, 10.995011768066682 ], [ -74.792525073312831, 10.995456699850591 ], [ -74.792736227379734, 10.99563014783415 ], [ -74.792874483018807, 10.995765889734328 ], [ -74.793120829430237, 10.996042401012463 ], [ -74.793414936880609, 10.995791027123248 ], [ -74.793756958155498, 10.99580759000415 ], [ -74.793855319932803, 10.995744113898811 ], [ -74.793994296051522, 10.99588443527343 ], [ -74.794264271996255, 10.995650357069209 ], [ -74.79464275771322, 10.99540447911064 ], [ -74.79488177707519, 10.995128773931389 ], [ -74.794274048077213, 10.99454878033368 ], [ -74.794533550687632, 10.994380819604755 ], [ -74.794812575704668, 10.994594487410586 ], [ -74.794950385242799, 10.99446746496991 ], [ -74.795249456307459, 10.99406148898699 ], [ -74.795387943889565, 10.99417354712488 ], [ -74.795600772608097, 10.994304563023061 ], [ -74.795895881452807, 10.994592386715951 ], [ -74.796017579891924, 10.99445725979327 ], [ -74.796153679818801, 10.994550002937521 ], [ -74.796401258684497, 10.994317976132454 ], [ -74.796447762854001, 10.994378305865865 ], [ -74.796685636957164, 10.99410664433355 ], [ -74.796613746504818, 10.99397549241513 ], [ -74.796983189238034, 10.993876814956879 ], [ -74.797258985419248, 10.994087596249299 ], [ -74.797511435884516, 10.9939458436086 ], [ -74.79765504598582, 10.993903951857989 ], [ -74.797669439955598, 10.993793861573439 ], [ -74.798250113639682, 10.993919548518047 ], [ -74.798418549151378, 10.993960369002769 ], [ -74.79864941103871, 10.994022544567191 ], [ -74.798663708160603, 10.99397823431325 ], [ -74.798873343406029, 10.99405233924054 ], [ -74.798938447106693, 10.994272485225419 ], [ -74.799303873198099, 10.99439242313141 ], [ -74.799312789112008, 10.99436085183709 ], [ -74.799390378304821, 10.994393983349349 ], [ -74.799439722079498, 10.99414165151711 ], [ -74.799715507144271, 10.99402894860596 ], [ -74.799769075310891, 10.99375084602806 ], [ -74.799557708292895, 10.99367481217625 ], [ -74.799626589390684, 10.993385961457649 ], [ -74.799704857878297, 10.993119699079591 ], [ -74.799644007829684, 10.993088026797199 ], [ -74.799717144102075, 10.992821943390039 ], [ -74.799803248513442, 10.99267485134343 ], [ -74.799865647474661, 10.99240622230813 ], [ -74.799913490330596, 10.99241108057798 ], [ -74.800068373947312, 10.99189871375874 ], [ -74.799971826186166, 10.99184997119602 ] ] ] ] } },
{ "type": "Feature", "properties": { "fid": null, "id": null, "NOMBRE": "POLIGONO1", "MUNICIPIO": "VILLAVICENCIO" }, "geometry": { "type": "MultiPolygon", "coordinates": [ [ [ [ -73.695533825807473, 4.02950406323202 ], [ -73.736841440672038, 4.060805485675981 ], [ -73.75608411840399, 4.146242974805808 ], [ -73.730940352834253, 4.228345066462097 ], [ -73.481555249428268, 4.220134857296468 ], [ -73.329666379864136, 4.088258372573552 ], [ -73.477963282918296, 4.003077452480151 ], [ -73.695533825807473, 4.02950406323202 ] ] ] ] } }
]
}
