{
"type": "FeatureCollection",
"name": "POLIGONOS",
"crs": { "type": "name", "properties": { "name": "urn:ogc:def:crs:OGC:1.3:CRS84" } },
"features": [
{ "type": "Feature", "properties": { "fid": null, "id": null, "NOMBRE": "POLIGONO1", "MUNICIPIO": "CONVENIO" }, "geometry": { "type": "MultiPolygon", "coordinates": [ [ [ [ -75.004024680227317, 4.940537419739885 ], [ -75.014015869642222, 4.94889846772393 ], [ -75.008284082030514, 4.958837071931381 ], [ -74.988143947578379, 4.963569740601596 ], [ -74.973032273588359, 4.963257515932377 ], [ -74.960227775575035, 4.95811731190445 ], [ -74.955968373771839, 4.949125241431043 ], [ -74.955863203356955, 4.937661666207634 ], [ -74.983496729870268, 4.93624186560657 ], [ -74.990017295593674, 4.934453968553378 ], [ -74.99443445301921, 4.933822946064017 ], [ -75.004024680227317, 4.940537419739885 ] ] ] ] } },
{ "type": "Feature", "properties": { "fid": null, "id": null, "NOMBRE": "POLIGONO1", "MUNICIPIO": "VILLAO" }, "geometry": { "type": "MultiPolygon", "coordinates": [ [ [ [ -73.631411086407809, 4.130358771894326 ], [ -73.63530239175887, 4.140139620479435 ], [ -73.62531120234398, 4.144819703942203 ], [ -73.613374360253545, 4.141349080250713 ], [ -73.609272714072688, 4.132777691436879 ], [ -73.612112315274828, 4.124574399075175 ], [ -73.6223138455195, 4.118369344596449 ], [ -73.627572366264189, 4.121366701420918 ], [ -73.631411086407809, 4.130358771894326 ] ] ] ] } }
]
}
